ALPHASAT                
1 39215U 13038A   26115.64335663  .00000121  00000+0  00000+0 0  9998
2 39215   2.9920   1.8417 0002288  55.7920  52.5005  1.00272097 43498
INSAT-3D                
1 39216U 13038B   26115.80660573 -.00000351  00000+0  00000+0 0  9994
2 39216   1.7925  83.1654 0001492 279.5999 270.9537  1.00272318 46557
WGS F6 (USA 244)        
1 39222U 13041A   26115.04119345  .00000000  00000+0  00000+0 0  9997
2 39222   0.0101 229.4927 0000143 112.0689 111.1414  1.00270510 45527
ES'HAIL 1               
1 39233U 13044A   26115.78606564  .00000129  00000+0  00000+0 0  9999
2 39233   0.0563  15.3520 0002327  16.7905 130.1089  1.00270484 46103
GSAT-7                  
1 39234U 13044B   26115.79559899 -.00000090  00000+0  00000+0 0  9997
2 39234   0.0874  86.2149 0004672 215.0269 272.9589  1.00271614 44738
AMOS-4                  
1 39237U 13045A   26115.79386566 -.00000006  00000+0  00000+0 0  9997
2 39237   0.0161 238.7958 0003220 144.2997 181.5059  1.00271379 46435
AEHF-3 (USA 246)        
1 39256U 13050A   26115.60820293  .00000019  00000+0  00000+0 0  9997
2 39256   5.1645  67.6565 0088570 188.4088  52.3148  1.00268296 45127
ASTRA 2E                
1 39285U 13056A   26115.78667229  .00000137  00000+0  00000+0 0  9993
2 39285   0.0616   5.2399 0002322  30.0620 130.2150  1.00272069 45895
FM-6                    
1 39360U 13058A   26115.33198740 -.00000029  00000+0  00000+0 0  9998
2 39360   0.0105 250.7766 0000286 259.1068  66.6169  1.00265196 45541
RADUGA-1M 3             
1 39375U 13062A   26115.07490692  .00000143  00000+0  00000+0 0  9997
2 39375   5.8268  73.0155 0000843 240.2713 321.7724  1.00270446 45574
SES-8                   
1 39460U 13071A   26115.87316801 -.00000283  00000+0  00000+0 0  9995
2 39460   0.0168 261.0038 0002370 150.4716 211.7539  1.00272173 43902
INMARSAT 5-F1           
1 39476U 13073A   26115.50816561  .00000014  00000+0  00000+0 0  9993
2 39476   0.0099 210.0195 0000587 352.2974 256.7203  1.00273236 45052
TKSAT-1 (TUPAC KATARI)  
1 39481U 13075A   26115.86780985 -.00000208  00000+0  00000+0 0  9996
2 39481   0.0198 105.3770 0002899 266.3058  67.4088  1.00272671 45071
EXPRESS-AM5             
1 39487U 13077A   26115.81092279 -.00000293  00000+0  00000+0 0  9995
2 39487   0.0163 250.6665 0001668  60.7243 334.3990  1.00274545 45835
GSAT-14                 
1 39498U 14001A   26115.79568566  .00000000  00000+0  00000+0 0  9994
2 39498   0.0221 104.4084 0002181 226.4549 243.3843  1.00269729 44859
THAICOM 6               
1 39500U 14002A   26115.79655234 -.00000135  00000+0  00000+0 0  9998
2 39500   0.0721 100.3532 0003939 344.4023 134.3261  1.00271576 44936
TDRS 12                 
1 39504U 14004A   26115.70162655 -.00000282  00000+0  00000+0 0  9998
2 39504   3.9277  18.2080 0002026 247.6938 159.5013  1.00269748 43759
