[{"OBJECT_NAME":"ALPHASAT","OBJECT_ID":"2013-038A","EPOCH":"2026-04-25T15:26:26.012832","MEAN_MOTION":1.00272097,"ECCENTRICITY":0.0002288,"INCLINATION":2.992,"RA_OF_ASC_NODE":1.8417,"ARG_OF_PERICENTER":55.792,"MEAN_ANOMALY":52.5005,"EPHEMERIS_TYPE":0,"CLASSIFICATION_TYPE":"U","NORAD_CAT_ID":39215,"ELEMENT_SET_NO":999,"REV_AT_EPOCH":4349,"BSTAR":0,"MEAN_MOTION_DOT":1.21e-6,"MEAN_MOTION_DDOT":0},{"OBJECT_NAME":"INSAT-3D","OBJECT_ID":"2013-038B","EPOCH":"2026-04-25T19:21:30.735072","MEAN_MOTION":1.00272318,"ECCENTRICITY":0.0001492,"INCLINATION":1.7925,"RA_OF_ASC_NODE":83.1654,"ARG_OF_PERICENTER":279.5999,"MEAN_ANOMALY":270.9537,"EPHEMERIS_TYPE":0,"CLASSIFICATION_TYPE":"U","NORAD_CAT_ID":39216,"ELEMENT_SET_NO":999,"REV_AT_EPOCH":4655,"BSTAR":0,"MEAN_MOTION_DOT":-3.51e-6,"MEAN_MOTION_DDOT":0},{"OBJECT_NAME":"WGS F6 (USA 244)","OBJECT_ID":"2013-041A","EPOCH":"2026-04-25T00:59:19.114080","MEAN_MOTION":1.0027051,"ECCENTRICITY":1.438e-5,"INCLINATION":0.0101,"RA_OF_ASC_NODE":229.4927,"ARG_OF_PERICENTER":112.0689,"MEAN_ANOMALY":111.1414,"EPHEMERIS_TYPE":0,"CLASSIFICATION_TYPE":"U","NORAD_CAT_ID":39222,"ELEMENT_SET_NO":999,"REV_AT_EPOCH":4552,"BSTAR":0,"MEAN_MOTION_DOT":0,"MEAN_MOTION_DDOT":0},{"OBJECT_NAME":"ES'HAIL 1","OBJECT_ID":"2013-044A","EPOCH":"2026-04-25T18:51:56.071296","MEAN_MOTION":1.00270484,"ECCENTRICITY":0.0002327,"INCLINATION":0.0563,"RA_OF_ASC_NODE":15.352,"ARG_OF_PERICENTER":16.7905,"MEAN_ANOMALY":130.1089,"EPHEMERIS_TYPE":0,"CLASSIFICATION_TYPE":"U","NORAD_CAT_ID":39233,"ELEMENT_SET_NO":999,"REV_AT_EPOCH":4610,"BSTAR":0,"MEAN_MOTION_DOT":1.29e-6,"MEAN_MOTION_DDOT":0},{"OBJECT_NAME":"GSAT-7","OBJECT_ID":"2013-044B","EPOCH":"2026-04-25T19:05:39.752736","MEAN_MOTION":1.00271614,"ECCENTRICITY":0.0004672,"INCLINATION":0.0874,"RA_OF_ASC_NODE":86.2149,"ARG_OF_PERICENTER":215.0269,"MEAN_ANOMALY":272.9589,"EPHEMERIS_TYPE":0,"CLASSIFICATION_TYPE":"U","NORAD_CAT_ID":39234,"ELEMENT_SET_NO":999,"REV_AT_EPOCH":4473,"BSTAR":0,"MEAN_MOTION_DOT":-9.0e-7,"MEAN_MOTION_DDOT":0},{"OBJECT_NAME":"AMOS-4","OBJECT_ID":"2013-045A","EPOCH":"2026-04-25T19:03:09.993024","MEAN_MOTION":1.00271379,"ECCENTRICITY":0.000322,"INCLINATION":0.0161,"RA_OF_ASC_NODE":238.7958,"ARG_OF_PERICENTER":144.2997,"MEAN_ANOMALY":181.5059,"EPHEMERIS_TYPE":0,"CLASSIFICATION_TYPE":"U","NORAD_CAT_ID":39237,"ELEMENT_SET_NO":999,"REV_AT_EPOCH":4643,"BSTAR":0,"MEAN_MOTION_DOT":-6.0e-8,"MEAN_MOTION_DDOT":0},{"OBJECT_NAME":"AEHF-3 (USA 246)","OBJECT_ID":"2013-050A","EPOCH":"2026-04-25T14:35:48.733152","MEAN_MOTION":1.00268296,"ECCENTRICITY":0.008857,"INCLINATION":5.1645,"RA_OF_ASC_NODE":67.6565,"ARG_OF_PERICENTER":188.4088,"MEAN_ANOMALY":52.3148,"EPHEMERIS_TYPE":0,"CLASSIFICATION_TYPE":"U","NORAD_CAT_ID":39256,"ELEMENT_SET_NO":999,"REV_AT_EPOCH":4512,"BSTAR":0,"MEAN_MOTION_DOT":1.9e-7,"MEAN_MOTION_DDOT":0},{"OBJECT_NAME":"ASTRA 2E","OBJECT_ID":"2013-056A","EPOCH":"2026-04-25T18:52:48.485856","MEAN_MOTION":1.00272069,"ECCENTRICITY":0.0002322,"INCLINATION":0.0616,"RA_OF_ASC_NODE":5.2399,"ARG_OF_PERICENTER":30.062,"MEAN_ANOMALY":130.215,"EPHEMERIS_TYPE":0,"CLASSIFICATION_TYPE":"U","NORAD_CAT_ID":39285,"ELEMENT_SET_NO":999,"REV_AT_EPOCH":4589,"BSTAR":0,"MEAN_MOTION_DOT":1.37e-6,"MEAN_MOTION_DDOT":0},{"OBJECT_NAME":"FM-6","OBJECT_ID":"2013-058A","EPOCH":"2026-04-25T07:58:03.711360","MEAN_MOTION":1.00265196,"ECCENTRICITY":2.86e-5,"INCLINATION":0.0105,"RA_OF_ASC_NODE":250.7766,"ARG_OF_PERICENTER":259.1068,"MEAN_ANOMALY":66.6169,"EPHEMERIS_TYPE":0,"CLASSIFICATION_TYPE":"U","NORAD_CAT_ID":39360,"ELEMENT_SET_NO":999,"REV_AT_EPOCH":4554,"BSTAR":0,"MEAN_MOTION_DOT":-2.9e-7,"MEAN_MOTION_DDOT":0},{"OBJECT_NAME":"RADUGA-1M 3","OBJECT_ID":"2013-062A","EPOCH":"2026-04-25T01:47:51.957888","MEAN_MOTION":1.00270446,"ECCENTRICITY":8.43e-5,"INCLINATION":5.8268,"RA_OF_ASC_NODE":73.0155,"ARG_OF_PERICENTER":240.2713,"MEAN_ANOMALY":321.7724,"EPHEMERIS_TYPE":0,"CLASSIFICATION_TYPE":"U","NORAD_CAT_ID":39375,"ELEMENT_SET_NO":999,"REV_AT_EPOCH":4557,"BSTAR":0,"MEAN_MOTION_DOT":1.43e-6,"MEAN_MOTION_DDOT":0},{"OBJECT_NAME":"SES-8","OBJECT_ID":"2013-071A","EPOCH":"2026-04-25T20:57:21.716064","MEAN_MOTION":1.00272173,"ECCENTRICITY":0.000237,"INCLINATION":0.0168,"RA_OF_ASC_NODE":261.0038,"ARG_OF_PERICENTER":150.4716,"MEAN_ANOMALY":211.7539,"EPHEMERIS_TYPE":0,"CLASSIFICATION_TYPE":"U","NORAD_CAT_ID":39460,"ELEMENT_SET_NO":999,"REV_AT_EPOCH":4390,"BSTAR":0,"MEAN_MOTION_DOT":-2.83e-6,"MEAN_MOTION_DDOT":0},{"OBJECT_NAME":"INMARSAT 5-F1","OBJECT_ID":"2013-073A","EPOCH":"2026-04-25T12:11:45.508704","MEAN_MOTION":1.00273236,"ECCENTRICITY":5.87e-5,"INCLINATION":0.0099,"RA_OF_ASC_NODE":210.0195,"ARG_OF_PERICENTER":352.2974,"MEAN_ANOMALY":256.7203,"EPHEMERIS_TYPE":0,"CLASSIFICATION_TYPE":"U","NORAD_CAT_ID":39476,"ELEMENT_SET_NO":999,"REV_AT_EPOCH":4505,"BSTAR":0,"MEAN_MOTION_DOT":1.4e-7,"MEAN_MOTION_DDOT":0},{"OBJECT_NAME":"TKSAT-1 (TUPAC KATARI)","OBJECT_ID":"2013-075A","EPOCH":"2026-04-25T20:49:38.771040","MEAN_MOTION":1.00272671,"ECCENTRICITY":0.0002899,"INCLINATION":0.0198,"RA_OF_ASC_NODE":105.377,"ARG_OF_PERICENTER":266.3058,"MEAN_ANOMALY":67.4088,"EPHEMERIS_TYPE":0,"CLASSIFICATION_TYPE":"U","NORAD_CAT_ID":39481,"ELEMENT_SET_NO":999,"REV_AT_EPOCH":4507,"BSTAR":0,"MEAN_MOTION_DOT":-2.08e-6,"MEAN_MOTION_DDOT":0},{"OBJECT_NAME":"EXPRESS-AM5","OBJECT_ID":"2013-077A","EPOCH":"2026-04-25T19:27:43.729056","MEAN_MOTION":1.00274545,"ECCENTRICITY":0.0001668,"INCLINATION":0.0163,"RA_OF_ASC_NODE":250.6665,"ARG_OF_PERICENTER":60.7243,"MEAN_ANOMALY":334.399,"EPHEMERIS_TYPE":0,"CLASSIFICATION_TYPE":"U","NORAD_CAT_ID":39487,"ELEMENT_SET_NO":999,"REV_AT_EPOCH":4583,"BSTAR":0,"MEAN_MOTION_DOT":-2.93e-6,"MEAN_MOTION_DDOT":0},{"OBJECT_NAME":"GSAT-14","OBJECT_ID":"2014-001A","EPOCH":"2026-04-25T19:05:47.241024","MEAN_MOTION":1.00269729,"ECCENTRICITY":0.0002181,"INCLINATION":0.0221,"RA_OF_ASC_NODE":104.4084,"ARG_OF_PERICENTER":226.4549,"MEAN_ANOMALY":243.3843,"EPHEMERIS_TYPE":0,"CLASSIFICATION_TYPE":"U","NORAD_CAT_ID":39498,"ELEMENT_SET_NO":999,"REV_AT_EPOCH":4485,"BSTAR":0,"MEAN_MOTION_DOT":0,"MEAN_MOTION_DDOT":0},{"OBJECT_NAME":"THAICOM 6","OBJECT_ID":"2014-002A","EPOCH":"2026-04-25T19:07:02.122176","MEAN_MOTION":1.00271576,"ECCENTRICITY":0.0003939,"INCLINATION":0.0721,"RA_OF_ASC_NODE":100.3532,"ARG_OF_PERICENTER":344.4023,"MEAN_ANOMALY":134.3261,"EPHEMERIS_TYPE":0,"CLASSIFICATION_TYPE":"U","NORAD_CAT_ID":39500,"ELEMENT_SET_NO":999,"REV_AT_EPOCH":4493,"BSTAR":0,"MEAN_MOTION_DOT":-1.35e-6,"MEAN_MOTION_DDOT":0},{"OBJECT_NAME":"TDRS 12","OBJECT_ID":"2014-004A","EPOCH":"2026-04-25T16:50:20.533920","MEAN_MOTION":1.00269748,"ECCENTRICITY":0.0002026,"INCLINATION":3.9277,"RA_OF_ASC_NODE":18.208,"ARG_OF_PERICENTER":247.6938,"MEAN_ANOMALY":159.5013,"EPHEMERIS_TYPE":0,"CLASSIFICATION_TYPE":"U","NORAD_CAT_ID":39504,"ELEMENT_SET_NO":999,"REV_AT_EPOCH":4375,"BSTAR":0,"MEAN_MOTION_DOT":-2.82e-6,"MEAN_MOTION_DDOT":0}]
